Bew.-Nr.,Firmenname,Adresse,PLZ,Ort/Region,Kategorie,Weitere Aktivitäten,Tierart,Latitude,Longitude
70147816,Abattoir Communal,Ch. de la Villaire 8,1040.0,Echallens VD,"SH, CP",,"B, C, O, P, S",46.6393328,6.6298884
70147795,Abattoir d'Orsieres,Rue de la Commune 3,1937.0,Orsières VS,SH,SH(II),"B, C, O, P, S",46.0302109,7.1462139
42018154,Abattoir de la Vallée,,1874.0,Champéry VS,SH,,"B, C, O, P, S",46.17543,6.86903
65078572,Abattoir de la Vallée de Joux,,1344.0,L'Abbaye VD,"SH, CP",,"B, C, O, P, S",46.64966,6.31907
16-GE-27714,Abattoir de Loëx Sàrl,Route de Loëx 157,1233.0,Bernex GE,SH,SH(II),"B, C, O, P",46.1989219,6.0864241
70593921,Abattoir de Meinier,Case Postale 125,1252.0,Meinier GE,"SH, CP","SH(II), CP(II), SH(III), CP(III)","B, C, O, P",46.24706,6.23423
70148558,Abattoir des Marais Sàrl,Chemin des Marais 2,1470.0,Estavayer-le-Lac FR,SH,SH(II),"B, C, O, P, S",46.8393867,6.8481527
70147837,Abattoir le Vergnolet,Rte de Cremières 2,1070.0,Puidoux VD,SH,,"B, C, O, P, S",46.4932842,6.7869127
77417802,Abattoir Régional d'Avenches,Rte de la Plaine 64,1580.0,Avenches VD,SH,SH(III),"B, C, O, P, S",46.8914309,7.0467614
66582220,Abattoir régional Les Ponts-de-Martel,Les Barres ,2316.0,Les Ponts-de-Martel NE,SH,SH(III),"B, C, O, P, S",47.00016,8.01427
66645315,Abattoirs de la Vallée Sàrl,Rue des Artisans 13,2830.0,Courrendlin JU,SH,SH(III),"B, C, O, P, S",47.3430018,7.3689199
73257847,Abattoirs de Moudon SEAM SA,Rte de Siviriez 12,1510.0,Moudon VD,"SH, CP",,"B, C, O",46.6669279,6.8046343
65414232,Abattoirs de Moutier &amp; env. SA,,2740.0,Moutier BE,SH,"SH(II), SH(III)","B, C, O, P, S",47.27818,7.36951
68886628,Abattoirs Simon Rouiller SA,ch. des Abattoirs 6,1627.0,Vaulruz FR,"SH, CP","SH(II), CP(II), SH(III), CP(III), MM(V), PP(VI)","B, C, O, P, S",46.62118,6.98727
70147821,Administration Communale,Pl. du Village 1,1088.0,Ropraz VD,SH,SH(III),,46.6157051,6.7514906
42412502,Adrian Bürgisser,Schlachthaus Riedtal ,6126.0,Daiwil LU,SH,,"B, C, O, P, S",47.09843,8.01391
52609955,Agroscope,rte de la Tioleyre 4,1725.0,Posieux FR,"SH, CP",,"B, C, O, P",46.7685897,7.1054693
41566514,Andreas Galliker,Gärbigass ,6215.0,Beromünster LU,SH,,"B, C, O, P",47.20612,8.19265
70215523,Andrist Peter,Dorfstrasse 46,4452.0,Itingen BL,SH,"SH(II), SH(III)","B, C, O, P",47.4667224,7.7847777
42803025,"Arnold - Felber Hans, Kundenmetzgerei",Hint. Mühletal (Schlachtbetrieb) ,6130.0,Willisau LU,SH,,"B, C, O, P",47.10195,7.9861
70149373,Bauernverein Gossau,"Berghofstrasse 56,1",8625.0,Gossau ZH ZH,SH,"SH(II), SH(III)","B, C, O, P, S",47.3018715,8.762142
62693245,Baumgartner Otto,Amriswilerstrasse 51,8589.0,Sitterdorf TG,SH,,"B, C, O, P, S",47.5025081,9.2466976
94744024,Bell Schweiz AG Lehrlingsschlachtung,Schlachthofstrasse 55,4056.0,Basel BS,SH,,B,47.5762995,7.5665624
145,"Bell Schweiz AG, Frischfleisch Oensingen",Dünnernstrasse 31,4702.0,Oensingen SO,"SH, CP","CS(0), RW(0), MM(V), MP(V), PP(XIII)","B, O",47.282369,7.7193399
40877726,Berchtold Fleisch AG,Hauptstr. 36,5037.0,Muhen AG,SH,"SH(II), SH(III), GHE(IV)","B, C, O, P, S",47.3346004,8.0545271
40392969,Berchtold Metzgerei AG,Buonaserstrasse 2,6343.0,Rotkreuz ZG,SH,SH(II),"B, C, O, P",47.1410209,8.4285554
41582453,Bertiswiler Metzg AG,Bertiswilerstr. 75,6023.0,Rothenburg LU,SH,,"B, C, O, P",47.0936567,8.2716624
55270022,Betriebsgenossenschaft Metzgerschaft Berner Oberland,Uttigenstrasse 142,3603.0,Thun BE,"SH, CP","RW(0), WM(0), CP(III), PP(VI)","B, C, O, P, S",46.7706288,7.6015612
70626875,Bieri Martin,Huebwiesstr. 6,8492.0,Wila ZH,SH,"SH(II), SH(III)","B, C, O, P, S",47.4163275,8.8470024
66614694,Bio-Metzg AG,Erlenweg 6,3422.0,Kirchberg BE BE,SH,,"B, C, O, P",47.0876252,7.5804202
79810306,Bio-Metzg AG,Birchistrasse 20,3049.0,Säriswil BE,SH,"SH(II), SH(III), GHE(IV)","B, C, O, P, S",46.9942629,7.3503395
73387084,Bircher Eduard,Dorfplatz 74,5063.0,Wölflinswil AG,SH,"SH(II), SH(III), GHE(IV)","B, C, O, P, S",47.4611632,7.9980615
41053042,Blaser Ernst &amp; René,Hauptstrasse 47,5070.0,Frick AG,SH,"SH(II), SH(III), GHE(IV)","B, C, O, P, S",47.5076219,8.0206716
66679251,Blöchlinger-Wyss Hans &amp; Susi,Höf 1,7313.0,St. Margrethenberg SG,SH,,"B, C, O, P, S",46.97691,9.5127
64921821,"Borgeaud, Viande en gros Gaëtan",Grandes Maresches ,1920.0,Martigny VS,SH,,"B, C, O, P, S",46.10723,7.08096
62335367,Boucherie &amp; Chevaline Serge Gremaud Sàrl,rte de Fribourg 31,1726.0,Farvagny-le-Grand FR,"SH, CP","SH(II), CP(II)","B, C, O, P",46.7302399,7.0801465
53549344,Boucherie &amp; Epicerie Erard SA,Av. Centrale 45,1885.0,Chesières VD,"SH, CP",,"B, C, O, P, S",46.3014313,7.0441124
65878942,Boucherie CARNATA Sàrl,Prés Joyeux 5,2710.0,Tavannes BE,SH,"SH(II), SH(III)","B, C, O, P, S",47.2219592,7.190628
A62744250,"Boucherie de la Vallée, ZUFFEREY Gilbert",,3961.0,Vissoie VS,SH,,"B, C, O, P, S",46.21633,7.58544
CH41443897,Boucherie Domon SA,Pl. de la Liberté 1,2942.0,Alle JU,SH,SH(II),"B, C, O, P",47.4255443,7.128233
41973348,Boucherie du Mouret Philippe Künzli,ch. de la Croix-Blanche 3,1724.0,Le Mouret FR,SH,SH(II),"B, C, O, P",46.7444819,7.1728603
41309621,Boucherie Junod,Grand-Rue 16,2606.0,Corgémont BE,SH,"SH(II), GHE(IV)","B, O, P, S",47.1943391,7.1437654
41360827,Boucherie Krebs SA,Rue Principale 36,2735.0,Bévilard BE,SH,SH(III),"B, C, O, P",47.2365005,7.2832814
40014670,Boucherie Ledermann &amp; Cie,Rte du Marchairuz 12,1145.0,Bière VD,"SH, CP",,"B, C, O, P, S",46.5378636,6.3332558
61658658,Boucherie Matzinger-Bühler,,2606.0,Corgémont BE,SH,"SH(II), SH(III), GHE(IV)","B, C, O, P, S",47.19457,7.14517
CH41430573,Boucherie Neuenschwander,Route de Courtemblin 8,2950.0,Courgenay JU,SH,,"B, C, O, P",47.4034995,7.1287738
70658369,Boucherie Nyffeler SA,Rue du Clos 4,2740.0,Moutier BE,SH,SH(II),"B, O, P",47.2771854,7.3699398
68742246,Boucherie Schnegg,Chemin de la scierie 4,2738.0,Court BE,SH,SH(II),"B, C, O, P, S",47.2399233,7.3408245
14324114,Boucherie Vuitel,,2612.0,Cormoret BE,SH,GHE(IV),"B, C, O, P",47.17078,7.05421
CH41344631,Boucherie-Traiteur Kottelat SA,Simon-Feunat 3,2854.0,Bassecourt JU,SH,SH(II),"B, C, O, P, S",47.3397078,7.2474801
65372310,Breu Philipp,,8219.0,Trasadingen SH,SH,"SH(II), SH(III)","B, C, O, P, S",47.66862,8.42995
42990329,Buremetzg Kohler,Oberäbnit ,3457.0,Wasen im Emmental BE,SH,"SH(II), GHE(IV)","B, C, O, P",47.04273,7.79723
52281402,Burämetzg Thürig AG,Bahnhofstrasse 2,9615.0,Dietfurt SG,SH,SH(II),"B, C, O, P, S",47.345569,9.0789698
65317079,Buure-Metzg Kym,Riburgerstr. 35,4313.0,Möhlin AG,SH,"SH(II), SH(III), GHE(IV)","B, C, O, P, S",47.5668261,7.8401793
55035018,Cassani Metzg GmbH,Quartnerstrasse 19,8882.0,Unterterzen SG,SH,"SH(II), SH(III), GHE(IV)","B, C, O, P, S",47.1120576,9.249487
70147732,Commune de Val de Bagnes,Place Centrale ,1934.0,Le Châble VS VS,SH,,"B, C, O, P, S",46.07978,7.21192
75365146,Cooperative d'Exploitation de l'Abattoir Régional de Rolle &amp; Environs (CARRE),Creux-du-Mas 4,1180.0,Rolle VD,"SH, CP",,"B, C, O, P, S",46.463703,6.3242149
CH70147711,De Biasio Kevin,Chemin des Lavoirs ,2854.0,Bassecourt JU,SH,"SH(III), GHE(IV)","B, C, O, P",47.33829,7.24494
43213424,Diethelm-Schnellmann Wendelin,Höhgadenstrasse 45,8852.0,Altendorf SZ,SH,,"B, C, O, P",47.1769054,8.8166805
40931729,Dobler Adrian,Eggethof 83,8585.0,Langrickenbach TG,SH,"SH(II), SH(III), GHE(IV)","B, C, O, P",47.5781294,9.2477971
41023535,Dorfmetzg Gebr. Müller,Zürcherstrasse 31,4332.0,Stein AG AG,SH,"SH(II), SH(III), GHE(IV)","B, C, O, P, S",47.54403,7.95256
65907179,Dorfmetzg GmbH,Dorfmetzg GmbH ,6196.0,Marbach LU LU,SH,,"B, C, O, P",46.85441,7.89966
54430007,Dorfmetzg Langnau AG,Mitteldorf ,6262.0,Langnau b. Reiden LU,SH,,"B, C, O, P, S",47.23002,7.96308
46126839,Dorfmetzg Tanner AG,Felseggstrasse 24,9247.0,Henau SG,SH,"MP(V), PP(VI)","B, C, O, P",47.4541979,9.1182789
64503975,Dorfmetzg Wüthrich,,3534.0,Signau BE,SH,SH(III),"B, C, O, P",46.91944,7.72418
41441292,Dorfplatz-Zentrum Moser Muster,Dorfstrasse 10-14,3662.0,Seftigen BE,SH,,"B, C, O, P",46.7867063,7.5341
40586561,Eggs Beat,,3998.0,Reckingen VS VS,SH,SH(III),"B, C, O, P, S",46.46989,8.24164
70147952,Einwohnergemeinde &amp; Schlachthaus,Hirsackerstrasse 2,5272.0,Gansingen AG,SH,"SH(II), SH(III), GHE(IV)","B, C, O, P, S",47.54444,8.13478
73044356,Etablisements de la Plaine de l'Orbe,La Colonie ,1350.0,Orbe VD,SH,,,46.727,6.54309
50683631,Etablissement de détention fribourgeois EDFR -Bellechasse,Bellechasse ,1786.0,Sugiez FR,"SH, CP",PP(VI),"B, C, O, P",46.96192,7.11292
50322658,Felix Ulmann AG,Hauptstrasse 181,5732.0,Zetzwil AG,SH,"SH(II), SH(III), GHE(IV)","B, C, O, P, S",47.284176,8.1524949
155,FF Frischfleisch AG,Zeughausstrasse 14,6210.0,Sursee LU,"SH, CP","CP(II), MM(V), MP(V)","B, C, O, P",47.1787136,8.1032199
CH-155,FF Frischfleisch AG,Zeughausstrasse 14,6210.0,Sursee LU,"SH, CP","CP(II), MM(V), MP(V)","B, C, O, P",47.1787136,8.1032199
70218990,Fischbacher Buremetzg AG,Lerchenfeld ,9601.0,Lütisburg Station SG,SH,,"B, C, O, P, S",47.3851,9.07235
65986542,Fleisch und Brau AG - Schlachthof &amp; Wursterei,Dorfstr. 2,1717.0,St. Ursen FR,SH,SH(III),"B, C, O, P",46.78687,7.22433
64702269,Fleischgewinnung appenzeller fleisch und feinkost ag,Mettlenstrasse 29,9050.0,Appenzell AI,"SH, CP","SH(II), CP(II), SH(III), CP(III), CP(IV), GHE(IV)","B, C, O, P, S",47.3363125,9.4002261
65378967,Fleischhuis Obwalden AG,Industriestrasse 12,6064.0,Kerns OW,SH,,"B, C, O, P",46.9101293,8.2905913
99362466,Fleischwerkstatt Röthenbach AG Samuel Winkelmann,Kreuzfeldweg 18,3373.0,Röthenbach Herzogenbuchsee BE,SH,"SH(II), SH(III), GHE(IV)","B, C, O, P, S",47.2078638,7.6970705
41650988,Forster Metzgerei GmbH,Bischofszellerstrasse 338,9212.0,Arnegg SG,SH,,"B, C, O, P, S",47.4428714,9.2558579
70601095,Fritschi Reinhard,Bergstrasse 5,8416.0,Flaach ZH,SH,"SH(II), SH(III)","B, C, O, P, S",47.5724434,8.6027459
40865893,Fuchs Urs,Dorf 44,9035.0,Grub AR AR,SH,"SH(II), GHE(IV)","B, C, O, P",47.38937,9.39818
15773782,Föhn Lukas,Stoosstrasse 23,6436.0,Ried (Muotathal) SZ,SH,,"B, C, O, P",46.9859706,8.706538
CH63569388,Gatherat Alain,Rte de France 6,2926.0,Boncourt JU,SH,"SH(II), SH(III)","B, C, O",49.323529,2.193955
70149111,Gemeinde Eglisau Schlachtlokal,Obergass 17,8193.0,Eglisau ZH,SH,"SH(II), SH(III)","B, C, O, P, S",47.5760341,8.5241095
70149106,Gemeinde Unterstammheim,Gemeindehausplatz 2,8476.0,Unterstammheim ZH,SH,"SH(II), SH(III)","B, C, O, P, S",47.6392946,8.7910663
70218461,Gemeindekanzlei Mandach,Hauptstrasse 170,5318.0,Mandach AG,SH,"SH(II), SH(III)","B, C, O, P, S",47.5470751,8.1858434
70594946,Gemeindeverwaltung Marthalen,Altemerstr. ,8460.0,Marthalen ZH,SH,"SH(II), SH(III)","B, C, O, P",47.62913,8.65326
67723624,Gen.Schlachthaus Sense Oberland,Zollhaus 536,1716.0,Plaffeien FR,"SH, CP","SH(III), CP(III), CP(IV), MM(V), MP(V), PP(VI)","B, C, O, P, S",46.7028023,7.3096801
16638918,Genossenschaft Fleisch und Wild Chläggi,Schlachthaus ,8215.0,Hallau SH,"SH, CP","CS(0), SH(II), CP(II), SH(III), CP(III), CP(IV), GHE(IV)","B, C, O, P, S",47.69648,8.45827
84110623,Genossenschaft Schlachthaus Gampel,,3945.0,Gampel VS,SH,SH(III),"B, C, O, P, S",46.31599,7.7421
40478521,Grandjean &amp; Fils SA,Rte de Genève 2,1033.0,Cheseaux-sur-Lausanne VD,"SH, CP",,"B, C, O, P, S",46.5844307,6.6046302
70833175,H.R. Kyburz Vieh + Fleisch AG,Dorfstrasse 32,5242.0,Lupfig AG,"SH, CP","CS(0), SH(II), CP(II), SH(III), CP(III), CP(IV), GHE(IV), MM(V), MP(V), MSM(V), PP(VI)","B, C, O, P, S",47.4413837,8.2014863
CH 6173292,Haenni Philippe,Grand'Rue 18,1083.0,Mézières VD VD,"SH, CP",,"B, P",46.5942186,6.7705423
ZB-70149085,Hans und Wurst Naturmetzg GmbH,Chorbstr. 2,8462.0,Rheinau ZH,SH,,B,47.6438276,8.606792
70149085,Hans und Wurst Naturmetzg GmbH,Chorbstr. 2,8462.0,Rheinau ZH,SH,"SH(II), SH(III)","B, C, O, P, S",47.6438276,8.606792
70149499,Hasler Pascal,Hagenwil am Nollen (Schlachthaus) ,9514.0,Wuppenau TG,SH,"SH(II), SH(III)","B, C, O, P",47.49633,9.10904
68593094,Hausschlachtanlage Degersheim und Umgebung AG,Grüenaustrasse 10,9113.0,Degersheim SG,SH,,"B, C, O, P, S",47.3798974,9.2089418
63432113,Heinrich-Hürlimann Remo,Sonnenbergstrasse 7,6415.0,Arth SZ,SH,,"B, C, O, P",47.0654078,8.5339367
64272406,Heinzer Metzgerei GmbH,Hauptstrasse 23,6436.0,Muotathal SZ,"SH, CP","CP(II), PP(VI)","B, C, O, P",46.9748028,8.75653
70148689,Hinni-Thomet Christian,Gaselstrasse 176,3144.0,Gasel BE,SH,"SH(II), SH(III), GHE(IV)","B, C, O, P",46.8981411,7.4030328
40983402,Hobi Andreas,Weinfelderstrasse 67,9543.0,St. Margarethen TG TG,SH,"SH(II), SH(III), GHE(IV)","B, C, O, P, S",47.486135,9.0001081
42417977,Hofmann Josef,Brüschhalde ,6403.0,Küssnacht am Rigi SZ,SH,,"B, C, O, P",47.08557,8.44206
41029778,Huwyler Metzgerei &amp; Partyservice GmbH,Oberdorf 1,5637.0,Beinwil (Freiamt) AG,SH,"SH(II), SH(III), GHE(IV)","B, C, O, P, S",47.2300492,8.342608
40944508,Hälg Metzgerei AG,Bahnhofstrasse 75,9315.0,Neukirch (Egnach) TG,SH,SH(II),"B, C, O, P",47.53114,9.37283
41683873,Häller Fleischprodukte AG,Altishoferstr. 36,6252.0,Dagmersellen LU,SH,,"B, C, O, P",47.2100329,7.9842044
79870279,IG Fleisch vom Reiat,,8242.0,Bibern SH SH,SH,"SH(II), SH(III)","B, C, O, P, S",47.77291,8.6762
70147910,IG Schlachthausverein Alterswilen,Ellighauserstrasse 11,8573.0,Alterswilen TG,SH,"SH(II), SH(III), GHE(IV)","B, C, O, P",47.6101488,9.1498983
70600861,IG Schlachtlokal obere Schwanden,Obere Schwandenstrasse 17.1,8833.0,Samstagern ZH,SH,"SH(II), SH(III)","B, C, O, P, S",47.19167,8.68196
88504378,Il Nuovo Macello Avegno Sagl,In di Salécc 21,6670.0,Avegno TI,SH,,"B, C, O, P, S",46.2135617,8.7443663
45123852,Isenegger - Metzgerei,Luzernerstrasse 26,6037.0,Root LU,SH,,"B, C, O, P",47.1128674,8.3877675
85808642,JG Viandes Sàrl,Route du Simplon 7,1906.0,Charrat VS,SH,SH(II),"B, C, O, P, S",46.1263545,7.1269576
55337153,Joël Rigolet,rte de Sorens 72,1689.0,Le Châtelard-près-Romont FR,"SH, CP",,"B, C, O, P",46.6763981,7.0120787
61463166,Jost Ernst jun.,Hauptstrasse 12,4438.0,Langenbruck BL,SH,,"B, C, O, P",47.3477135,7.7692559
80596687,Kalberer Martin,Brunnenwiesenstrasse 37,8887.0,Mels SG,SH,,"B, C, O, P, S",47.0375036,9.4658228
64226389,Kast GmbH Metzgerei,Neugasse 8,9442.0,Berneck SG,SH,,"B, C, O, P, S",47.42465,9.61254
41686937,Kloster-Metzgerei Haas AG,Murhofstr. 2,4915.0,St. Urban LU,"SH, CP","CP(II), CP(III), MP(V), PP(VI)","B, C, O, P, S",47.2332749,7.8388992
42567362,Kobler René,Grundstrasse 10,9464.0,Rüthi (Rheintal) SG,SH,SH(III),"B, C, O, P, S",47.2968855,9.5367296
67765142,Kronenmetzg GmbH,Hauptstrasse 23,6418.0,Rothenthurm SZ,SH,,"B, C, O, P",47.1033984,8.6754713
66218967,Krucker Philipp,Dorf 4,9527.0,Niederhelfenschwil SG,SH,SH(II),"B, C, O, P, S",47.47487,9.18543
80497730,Kundenmetzgerei Bamert Ulrich,Grund 565,9044.0,Wald AR AR,SH,"SH(II), GHE(IV)","B, C, O, P, S",47.38937,9.39818
A10607115,Kundenmetzgerei Kohler,Industriestrasse 18,3422.0,Rüdtligen BE,SH,"SH(II), SH(III), GHE(IV)","B, C, O, P, S",47.0915492,7.5686579
71467255,Kundenmetzgerei Tellenbach,,3365.0,Grasswil BE,SH,"SH(II), SH(III), GHE(IV)","B, C, O, P",47.14408,7.67012
41512257,Kümin Feinkost GmbH,Chilestrasse 4,6026.0,Rain LU,SH,,"B, C, O, P",47.1297896,8.2584613
40190930,Kündig Adolf,Rickenbachstrasse 50,6430.0,Schwyz SZ,SH,,"B, C, O, P",47.0218064,8.6595813
42137746,Küpfer's Dorfmetzg GmbH,Oberdorf ,6262.0,Langnau b. Reiden LU,"SH, CP",PP(VI),"B, C, O, P",47.23002,7.96308
94118366,Köferli AG Metzgerei Köferli Albert,Winkel ,5312.0,Döttingen AG,SH,"SH(II), SH(III)","B, C, O, P, S",47.57091,8.25846
77315719,La Campagnarde Sàrl,Rue du Carroz 12,1071.0,Chexbres VD,"SH, CP",,"B, C, O, P, S",46.4816795,6.7755973
67782635,Landmetzg Hinterland GmbH,Mööslimatten 16,6218.0,Ettiswil LU,SH,,"B, C, O, P",47.1453063,8.0228681
50360779,Landmetzg Keist,Gondiswilerstrasse 6,6146.0,Grossdietwil LU,SH,,"B, C, O, P",47.1698594,7.8826663
70218681,Landmetzgerei Wattenwil GmbH,Blumensteinstrasse 35b,3665.0,Wattenwil BE,SH,"SH(II), SH(III), GHE(IV)","B, C, O, P, S",46.7632435,7.5088337
52438422,Landwirtschaftliches Zentrum SG,Rheinhof 11,9465.0,Salez SG,SH,,"B, C, O, P",47.2318438,9.4925041
41726982,Laternser Oskar,Dorfstrasse 39,8873.0,Amden SG,SH,SH(III),"B, C, O",47.14888,9.14233
70218812,Les Tchacaîons du Jorat SNC,Rte du Nord 15,1076.0,Ferlens VD VD,"SH, CP","SH(II), CP(II), CP(IV), GHE(IV)","B, C, O, P",46.5901081,6.7883672
67691538,Lippuner Stüdtlimetzg AG,Wiedenstrasse 19,9470.0,Buchs SG SG,SH,,"B, C, O, P, S",47.1683835,9.4714947
92916998,Lussi-Vogler Michael,Rochushostatt 1,6370.0,Oberdorf NW NW,SH,,"B, C, O, P",46.9504357,8.3811087
80622944,Macelleria Cavargna,Via Campagnora 2,6713.0,Malvaglia TI,SH,,"B, C, O, P, S",45.9593445,8.9022348
A40099936,Macelleria Fratelli Freddi,Via Cantonale ,6655.0,Intragna TI,SH,,"B, C, O",46.17709,8.70058
70678543,Macelleria Mattioli SA,Via Petronilla 67,6746.0,Lavorgo TI,SH,,"B, C, O, P, S",46.4408259,8.8411832
80623047,Macelleria Piccoli,,6776.0,Piotta TI,SH,,"B, C, O, P, S",46.51361,8.6783
65600737,Macelleria Vescovi Arno Sagl,,6718.0,Olivone TI,SH,,"B, C, O, P, S",46.52964,8.94356
44123201,Macello Bacchini,,6544.0,Braggio GR,SH,,"B, C",46.30277,9.1238
80610472,Macello Branchi,La Presa da Sot ,7743.0,Brusio GR,SH,"SH(II), SH(III), GHE(IV)","B, C, O, P, S",46.25767,10.12604
CH-70678501,Macello Cassa Bestiame Olivone,C/O Urietti Gino ,6718.0,Olivone TI,SH,,"B, C, O, P, S",46.52964,8.94356
40832416,Macello Fagetti,al S Ã€NT,6535.0,Roveredo GR GR,SH,"SH(II), SH(III), GHE(IV)","B, C, O, S",46.23512,9.12622
70602565,Macello Lardi,Via da mez 177 A,7742.0,Poschiavo GR,SH,"SH(II), SH(III), GHE(IV)","B, C, O, P, S",46.3244,10.05721
TI97568260,Macello Togni Michele e Ruth,Rufrass 29,6714.0,Semione TI,SH,,"B, C, O",46.4083948,8.9704061
52112972,Markus Moser Kundenmetzgerei GmbH,Seetalstrasse 11,5630.0,Muri AG AG,SH,"SH(II), SH(III), GHE(IV)","B, C, O, P, S",47.2734421,8.3370368
41537712,"Markus Stalder, Schlachthaus Bäch",Bäch 3,6222.0,Gunzwil LU,SH,,"B, C, O, P",47.1740501,8.1679518
157,Marmy SA Viande en Gros,ch. des Marais 10,1470.0,Estavayer-le-Lac FR,"SH, CP","CS(0), PP(XIII)",B,46.8391119,6.8484293
43895703,Martin Georges &amp; Pascal,Rte de Cremières 2,1070.0,Puidoux VD,"SH, CP",SH(II),"B, C, O, P, S",46.4932842,6.7869127
69523308,Mati Macello Ticino SA Guidotti Davide,Via Indüstri ,6705.0,Cresciano TI,SH,,"B, C, O, P, S",46.27875,9.00261
70149127,Meier Marcel,Gottfried-Keller-Str. 19,8192.0,Glattfelden ZH,SH,"SH(II), SH(III)","B, C, O, P, S",47.5593633,8.499514
46792285,Meier Martin,Löwenplatz 10,5612.0,Villmergen AG,SH,"SH(II), SH(III), GHE(IV)","B, C, O, P, S",47.3446998,8.2451889
61687989,Mettler Eugen,Goldplanggstrasse 8,6436.0,Muotathal SZ,SH,,"B, C, O, P",46.9746412,8.7545688
51959752,Metzger Gabriel AG,Hauptstrasse 5,6386.0,Wolfenschiessen NW,"SH, CP","MP(V), PP(VI)","B, C, O, P",46.9104704,8.3959158
46112820,Metzgerei Alois Koller AG,Bernstrasse 47,4852.0,Rothrist AG,SH,"SH(II), SH(III), GHE(IV)","B, C, O, P, S",47.30508,7.89196
41251804,Metzgerei Brunner,Tösstalstr. 67,8488.0,Turbenthal ZH,SH,"SH(II), SH(III)","B, C, O, P, S",47.4406099,8.8433902
41032173,Metzgerei Burkard AG,Badstrasse 1,5737.0,Menziken AG,SH,"SH(II), SH(III), GHE(IV)","B, C, O, P, S",47.243431,8.1890001
40835244,Metzgerei Chiesa GmbH,Via Muntegn 31,7603.0,Vicosoprano GR,SH,"SH(III), GHE(IV)","B, C, O, P",46.35055,9.6238897
60601168,Metzgerei Diethelm AG,Rietstrasse 10,9436.0,Balgach SG,SH,,"B, C, O",47.4061356,9.6081193
10505,Metzgerei Falknis Anstalt,Prär 1,9496.0,Balzers FL,SH,SH(III),"B, C, O, P, S",47.00016,8.01427
41496972,Metzgerei Felder GmbH,Marktmätteli ,6162.0,Entlebuch LU,SH,,"B, C, O, P",46.97619,8.10786
53560107,Metzgerei Frey AG,Braunauerstrasse 3,9512.0,Rossrüti SG,SH,,"B, C, O, P, S",47.4747751,9.0610737
80562625,"Metzgerei Frischkopf GmbH, 6275 Ballwil",Flurweidstrasse 8,6275.0,Ballwil LU,"SH, CP","SH(III), CP(III)","B, C, O, P, S",47.1626877,8.3275643
88549232,Metzgerei Gebr. Felder,Mattenstrasse 7,5745.0,Safenwil AG,SH,"SH(II), SH(III), GHE(IV), PP(XIII)","B, C, O, P, S",47.3232913,7.9920033
70626812,Metzgerei Gebr. Jucker AG,Dorfstr. 3,8483.0,Kollbrunn ZH,SH,"SH(II), SH(III)","B, C, O, P, S",47.4577206,8.7747365
45722009,Metzgerei Gebrüder Schuler AG,Müllernstrasse 23,6418.0,Rothenthurm SZ,SH,,"B, C, O, P",47.1050817,8.6715139
53212955,Metzgerei Giger AG,Dorf 16,6162.0,Entlebuch LU,SH,,"B, C, O, P",46.9941309,8.0650742
66515549,Metzgerei Gysin,Kirchweg 1,4448.0,Läufelfingen BL,SH,"SH(II), SH(III), GHE(IV)","B, C, O, P",47.3958565,7.8552185
50058322,Metzgerei Hacker,Zürcherstr. 19,8424.0,Embrach ZH,SH,"SH(II), SH(III)","B, C, O, P, S",47.50561,8.59406
40940770,Metzgerei Herrmann AG,Hauptstrasse 29,8583.0,Sulgen TG,SH,"SH(II), SH(III), GHE(IV)","B, C, O, P",47.5446339,9.1812431
41503289,Metzgerei Hähni AG,Gerbestrasse 12,3415.0,Hasle-Rüegsau BE,SH,,"B, C, O, P",47.01436,7.65112
41707906,Metzgerei Jud AG,Zürcherstrasse 53,8730.0,Uznach SG,SH,SH(III),"B, C, O, P, S",47.227463,8.9755795
41706483,Metzgerei Kaufmann AG,Neudorf ,9466.0,Sennwald SG,SH,,"B, C, O, P, S",47.26053,9.50268
45922417,Metzgerei Kreienbühl AG,Langenthalerstrasse 10,4803.0,Vordemwald AG,SH,"SH(II), SH(III), GHE(IV)","B, C, O, P, S",47.2747152,7.8992047
67519843,Metzgerei Lamm Türkel GmbH,Kirchstrasse 5,8580.0,Amriswil TG,SH,SH(II),"B, C, O",47.5495251,9.3000903
41962786,Metzgerei Lehmann AG,Dorfstrasse 24,3182.0,Ueberstorf FR,SH,"SH(III), CP(IV), GHE(IV)","B, C, O, P, S",46.8654368,7.3134124
66519302,Metzgerei Leibacher GmbH,Sandeggstrasse 2,8560.0,Märstetten TG,SH,"SH(III), GHE(IV)","B, C, O, P",47.5909973,9.070513
53250065,Metzgerei Loosli GmbH,Sandgütsch 2b,6024.0,Hildisrieden LU,SH,,"B, C, O, P",47.1485575,8.2286652
41980408,Metzgerei Lorétan AG,rte de Fribourg 17,1784.0,Courtepin FR,SH,"SH(II), CP(IV), GHE(IV)","B, C, O, P",46.8435737,7.1385318
M19.1530.1,Metzgerei Metzger AG,Schlachtanlage Erlen ,9655.0,Stein SG SG,SH,"SH(II), SH(III)","B, C, O, P, S",47.20001,9.22611
54468723,Metzgerei Nyffenegger AG,,3436.0,Zollbrück BE,SH,"SH(II), SH(III), GHE(IV)","B, C, O, P, S",46.97446,7.74376
40978313,Metzgerei Olbrecht AG,Kirchstrasse 8,8572.0,Berg TG TG,SH,"SH(II), SH(III), GHE(IV)","B, C, O, P",47.5767808,9.1646575
41616992,Metzgerei Peter Bühler,Bächlistrasse 64,9633.0,Bächli (Hemberg) SG,SH,SH(II),"B, C, O, P, S",47.3051851,9.1944909
42132842,Metzgerei Rickli AG,Unterdorf 13,8718.0,Schänis SG,SH,,"B, C, O, P",47.1608987,9.0464503
93743024,Metzgerei Riesen,Balmberg 83,3096.0,Oberbalm BE,SH,SH(II),"B, C, O, P",46.8688208,7.4054433
41713119,Metzgerei Rust GmbH,Sidwaldstrasse 26,9652.0,Neu St. Johann SG,SH,SH(II),"B, C, O, P, S",47.2322614,9.1941424
41504036,Metzgerei Schlüchter AG,,3465.0,Dürrenroth BE,SH,"SH(II), SH(III), GHE(IV)","B, C, O, P, S",47.08816,7.7913
40263452,Metzgerei Villiger AG,Zugerbergstrasse 17,6314.0,Unterägeri ZG,SH,"SH(II), SH(III), GHE(IV), PP(VI)","B, C, O, P, S",47.1364878,8.5825188
80442244,Metzgerei Werder,Marktgasse 17,5304.0,Endingen AG,SH,"SH(II), SH(III), GHE(IV)","B, C, O, P, S",47.53756,8.2900506
40453967,Metzgerei Widmer AG,,3257.0,Grossaffoltern BE,SH,"SH(II), SH(III), GHE(IV)","B, C, O, P",47.06595,7.36232
41626189,Metzgerei Willi AG,Wiesentalstrasse 2,9242.0,Oberuzwil SG,SH,,"B, C, O, P",47.4297172,9.1236848
63457338,"Metzgerei Wyss GmbH, Raphael Wyss",Industriestr. 5,6203.0,Sempach Station LU,SH,,"B, C, O, P",47.1164137,8.2019231
74136186,Metzgerei Zemp,Gewerbering 9,6018.0,Buttisholz LU,SH,,"B, C, O, P",47.1122949,8.0764468
70215518,Metzgerei Zimmermann AG,Rössligasse 18,4460.0,Gelterkinden BL,SH,"SH(III), GHE(IV)","B, C, O, P",47.4649456,7.8549592
340,Micarna SA - produits carnés,rte de l'Industrie 25,1784.0,Courtepin FR,"SH, CP","CS(0), RW(0), WM(0), CP(II), CP(III), CP(IV), MM(V), MP(V), PP(VI)","B, O, P, S",46.8655618,7.1201149
95779531,Michel Fritz,Untere Bönigstrasse 38,3800.0,Interlaken BE,SH,SH(III),"B, C, O, P, S",46.6896869,7.8758989
45855200,Michel Simon,Hauptstrasse 27,8552.0,Felben-Wellhausen TG,SH,,"B, C, O, P, S",47.57944,8.9423
64319106,Milava GmbH,Ebnaterstrasse 42,9642.0,Ebnat-Kappel SG,SH,,"B, C, O",47.2602938,9.1255351
70149200,Milchproduzentengenossenschaft Rüti,Goldbachstr. 20,8630.0,Rüti ZH ZH,SH,"SH(II), SH(III)","B, C, O, P, S",47.2654405,8.8766315
53497068,Moser Martin,Steinerbergstrasse 74,6417.0,Sattel SZ,SH,,"B, C, O, P",47.073588,8.6226132
53912741,Mujo Metzgerei,Hauptstrasse 20,4952.0,Eriswil BE,SH,"SH(II), SH(III), GHE(IV)","B, C, O",47.0805865,7.8498323
69992431,Müller Fleisch GmbH,,8226.0,Schleitheim SH,SH,"SH(II), SH(III)","B, C, O, P, S",47.74818,8.48213
41544987,"Müller Hans-Jörg, Littauer-Metzg",Luzernerstr. 1110,6014.0,Luzern LU,SH,,"B, C, O, P",47.1128494,8.3880335
40966213,Müller Stefan,Dorfstrasse 13,8512.0,Thundorf TG,SH,"SH(II), SH(III), GHE(IV)","B, C, O, P",47.5469619,8.9633512
50689125,MZ Kalchrain,Kalchrain ,8536.0,Hüttwilen TG,SH,"SH(II), SH(III), GHE(IV)","B, C, O, P",47.60674,8.87343
15529967,Mäder Daniel,Fulnau 1,4206.0,Seewen SO SO,SH,"SH(II), SH(III), GHE(IV)","B, C, O, P",47.4277824,7.6268368
94055156,Natur- und Tierpark Goldau,Depotweg 22,6410.0,Goldau SZ,SH,SH(III),"B, C, O, P",47.052244,8.5584774
79870635,Neidhart Felix,Hanfgartenstrasse 419a,8262.0,Ramsen SH,SH,"SH(II), SH(III)","B, C, O, P, S",47.70797,8.80949
52418960,Notschlachtanlage Appenzell,Weissbadstrasse 49 B,9050.0,Appenzell AI,SH,GHE(IV),"B, C, O, P, S",47.3289854,9.4158097
52380673,Notschlachthaus Einsiedeln,"Gaswerkstrasse 10a, Postfach 161",8840.0,Einsiedeln SZ,SH,,"B, C, O, P, S",47.11738,8.77922
72036804,Notschlachthaus Oberbussnang,Spitzacker ,9565.0,Bussnang TG,SH,"SH(II), SH(III), GHE(IV)","B, C, O, P",47.55678,9.08157
70218173,Notschlachthaus Schwyz,Kaltbach ,6423.0,Seewen SZ SZ,SH,,"B, C, O, P",47.02883,8.63039
70149546,Notschlachthaus Schübelbach,Rietbrunnen 16,8808.0,Pfäffikon SZ SZ,SH,,"B, C, O, P, S",47.2014368,8.7745402
70148123,Notschlachthaus Wartau,Lonnabongert 2420,9476.0,Weite SG,SH,SH(III),"B, C, O, P, S",47.09377,9.49835
70148139,Notschlachtlokal Engi/Bütschwil,Engi ,9606.0,Bütschwil SG,SH,,"B, C, O, P, S",47.36022,9.07213
,Notschlachtlokal Eschenbach c/o Finanzverwaltung Eschenbach,Gublen 2245,8733.0,Eschenbach SG SG,SH,SH(III),"B, C, O, P, S",47.2337727,8.9261562
70148034,Notschlachtlokal Gams Gemeindekassieramt,Hof ,9473.0,Gams SG,SH,SH(III),"B, C, O, P, S",47.20429,9.44172
70148029,Notschlachtlokal Mels Gemeinde Mels,Bachstrasse ,8887.0,Mels SG,SH,,"B, C, O, P",47.04556,9.42318
70148097,Notschlachtlokal Mörschwil,"Gemeindamt, Postfach ",9402.0,Mörschwil SG,SH,,"B, C, O, P, S",47.46867,9.42178
70149530,Notschlachtlokal Nesslau Hans Louis,Berstel 1983,9650.0,Nesslau SG,SH,SH(III),"B, C, O, P, S",47.2223417,9.1973882
A70148076,Notschlachtlokal Rossrüti Herr Thomas Ruckstuhl,Uerental ,9512.0,Rossrüti SG,SH,,"B, C, O, P, S",47.47566,9.06253
70682712,Notschlachtlokal Rufi,Mühlackerstrasse 2,8723.0,Rufi SG,SH,,"B, C, O, P, S",47.18068,9.04969
70148102,Notschlachtlokal Stadt Altstätten,Hinterdammstrasse 10,9450.0,Altstätten SG SG,SH,,"B, C, O, P, S",47.368135,9.5637717
70148055,Notschlachtlokal Wattwil,"Gemeindamt, Grüenaustr. 7",9630.0,Wattwil SG,SH,,"B, C, O, P, S",47.30225,9.08757
70148207,Notschlachtverband Appenzell Mittelland,Austrasse 32,9055.0,Bühler AR,SH,SH(III),"B, C, O, P, S",47.00016,8.01427
80497877,NSA Wolfhalden,Unterlindenberg 208,9427.0,Wolfhalden AR,SH,SH(III),"B, C, O, P, S",47.00016,8.01427
41614052,Näf Albert,Bütschwilerstrasse 2,9607.0,Mosnang SG,SH,SH(II),"B, C, O, P, S",47.3619597,9.0401548
53936475,Ochsen-Metzgerei Wattinger AG,Hauptstrasse 26,8594.0,Güttingen TG,SH,"SH(II), SH(III), GHE(IV)","B, C, O, P, S",47.6024455,9.2891095
42654397,Odermatt Anton jun.,Meierskählen 1,6370.0,Stans NW,"SH, CP","PP(VI), PP(IX)","B, C, O, P",46.9537518,8.3501113
45939934,Omlin-Grisiger Pius,Mittler-Aegerten 3,6372.0,Ennetmoos NW,SH,"SH(II), SH(III)","B, C, O, P, S",46.9388279,8.3067084
61848188,"Otto Portmann, Landmetzg Rottal",Wolhuserstrasse 45,6017.0,Ruswil LU,SH,,"B, C, O, P",47.0786617,8.1115587
70147926,PaKu Baumann GmbH,Poststrasse 23,8505.0,Pfyn TG,SH,"SH(II), SH(III), GHE(IV)","B, C, O, P",47.5979643,8.9538652
CH66312889,Paratte Romain,Rue des Rangiers 1,2350.0,Saignelégier JU,SH,,"B, C, O, P",47.258217,6.9987798
44147993,Perroud Patrick,Rte D'eclépens 10,1377.0,Oulens-sous-Echallens VD,"SH, CP",,"B, C, O, P, S",46.6436146,6.5738567
65570831,Pferdemetzgerei Bürgi,Binningerstrasse 169,4123.0,Allschwil BL,SH,"SH(III), GHE(IV)","B, S",47.5466941,7.5538703
73561426,Pferdemetzgerei Waibel Basil,Rheinstrasse 1C,9435.0,Heerbrugg SG,SH,SH(II),"B, C, O, P, S",47.4087238,9.6284171
41336363,Prétot Emilien,Grand-Rue 16,2345.0,Les Breuleux JU,SH,SH(II),"B, C, O, P, S",47.2103114,7.0069587
61908203,Regiometzg Huwiler,Wissebach ,6170.0,Schüpfheim LU,SH,,"B, C, O, P, S",46.95161,8.01723
80617436,Regionales Notlokal Stüsslingen,Hauptstrasse 50,4655.0,Stüsslingen SO,SH,"SH(II), SH(III)","B, C, O, P",47.393999,7.970731
52237948,Reichmuth Fleischwaren AG,Schützenstrasse 43,6430.0,Schwyz SZ,"SH, CP","CP(II), PP(VI)","B, C, O, P",47.0175431,8.653438
55548736,Restaurant &amp; Metzgerei Rebstock AG,Schulstrasse 1,5707.0,Seengen AG,SH,"SH(II), SH(III), GHE(IV)","B, C, O, P, S",47.3266181,8.2054093
41114318,Reussthal Metzgerei AG,Hauptstrasse 2,5524.0,Niederwil AG AG,SH,"SH(II), SH(III), GHE(IV)","B, C, O, P, S",47.3794843,8.2937224
46090842,Richard Claude,Rte de l'Etraz 23,1267.0,Vich VD,"SH, CP",,"B, C, O, P, S",46.4234774,6.2520983
41585302,ru-fleisch AG,Lochrietstrasse 23,8890.0,Flums SG,SH,SH(III),"B, C, O, P",47.0990602,9.3525238
66177792,Rufer Werner &amp; Barbara Metzgerei &amp; Partyservice,Hauptstrasse 206,5044.0,Schlossrued AG,SH,"SH(II), SH(III), GHE(IV)","B, C, O, P, S",47.2905444,8.0892152
40990085,Sandmeier Markus,Hauptstrasse 27,5742.0,Kölliken AG,"SH, CP","SH(II), CP(II), SH(III), CP(III), CP(IV), GHE(IV), MM(V), MP(V), MSM(V), PP(VI), PP(VIII), FFPP(VIII)","B, C, O, P, S",47.336301,8.0247345
64806454,Sauser Fernand,Rue de la Gare 43,2345.0,Les Breuleux JU,SH,SH(II),"B, C, O, P, S",47.2091104,6.9992835
62339403,Sauser Francis &amp; Daniella,Rue du 23-Juin 2,2340.0,Le Noirmont JU,SH,,"B, C, O, P, S",47.2249608,6.9578856
CH-101,SBZ Schlachtbetrieb Zürich AG,Hardgutstr. 9A,8004.0,Zürich ZH,SH,,"B, C, O, P, S",47.3848363,8.504811
63679378,Schenk Erwin,Bänikon ,8514.0,Amlikon-Bissegg TG,SH,"SH(II), SH(III), GHE(IV)","B, C, O, P, S",47.56192,9.03529
18751348,Schenkenberg Primefood AG,Ausserdorf 2,5108.0,Oberflachs AG,SH,"SH(II), SH(III), GHE(IV)","B, C, O, P, S",47.4413078,8.1283592
71467606,Schlachtanlage Abplanalp AG,,3862.0,Innertkirchen BE,SH,"SH(II), SH(III), GHE(IV)","B, C, O, P, S",46.70467,8.22876
70148914,Schlachtanlage Adelboden,Zelgstrasse 3,3715.0,Adelboden BE,SH,"SH(II), SH(III), GHE(IV)","B, C, O, P",46.4922455,7.5604615
41364203,Schlachtanlage Aeschlimann AG Pio Aeschlimann,Landshutstrasse 50,3427.0,Utzenstorf BE,SH,"SH(II), SH(III), GHE(IV)","B, C, O, P",47.1332539,7.5480162
70664336,Schlachtanlage Anstalten Witzwil,,3236.0,Gampelen BE,SH,,"B, P",47.01499,7.05994
64400191,Schlachtanlage BuureMetzg AG M.Hauswirth &amp; R.Bratschi,Alte Lauenenstrasse 10,3780.0,Gstaad BE,SH,"SH(II), SH(III), GHE(IV)","B, C, O, P",46.4723813,7.2877548
42970537,Schlachtanlage Bürgi COB Prod. Bürgi Cäsar &amp; Oliver,Grossprobstenberg ,2747.0,Seehof BE,SH,"SH(III), GHE(IV)","B, C, O, P",47.30467,7.52496
70148448,Schlachtanlage Büsserach,Industriestrasse 11,4227.0,Büsserach SO,SH,"SH(II), SH(III)","B, C, O, P",47.3953808,7.5345032
70148804,Schlachtanlage Bützberghof Minder Rudolf,Bützberg 2,4917.0,Busswil b. Melchnau BE,SH,SH(III),"B, C, O, P",47.18213,7.85128
65842967,Schlachtanlage Diemtigen &amp; Umg.,Wilerweg 23,3754.0,Diemtigen BE,SH,SH(III),"B, C, O, P, S",46.6579348,7.5750442
70148998,Schlachtanlage Fahrni,,3531.0,Oberthal BE,SH,"SH(II), SH(III), GHE(IV)","B, C, O, P",46.91998,7.68483
66140279,Schlachtanlage Frutigland Fleisch AG,,3714.0,Frutigen BE,SH,"SH(II), SH(III)","B, C, O, P, S",46.58782,7.64751
67034363,Schlachtanlage Frutigland Fleisch AG,,3713.0,Reichenbach im Kandertal BE,SH,SH(III),"B, C, O, P",46.62541,7.69362
52380254,Schlachtanlage Galgenbühl,,3770.0,Zweisimmen BE,SH,"SH(II), SH(III), GHE(IV)","B, C, O, P, S",46.55452,7.37385
62531519,Schlachtanlage Garius Metzgerei,,3425.0,Koppigen BE,SH,SH(II),"B, O, P",47.13385,7.59875
71467758,Schlachtanlage Gerber,,3623.0,Horrenbach BE,SH,"SH(II), SH(III)","B, C, O, P",46.87251,7.59563
80500021,Schlachtanlage Gerber Jakob &amp; Marianne Gerber,Fraumatt 174,3618.0,Süderen BE,SH,"SH(II), SH(III), GHE(IV)","B, C, O, P, S",46.81667,7.75
70148762,Schlachtanlage Grindelwald z.H. Ackerbaustelle,Talgüetli ,3818.0,Grindelwald BE,SH,"SH(II), SH(III)","B, C, O, P",46.62396,8.03601
41502589,Schlachtanlage Gygax Adrian Gygax,Dorfstrasse 14,3432.0,Lützelflüh-Goldbach BE,SH,,"B, C, O, P",47.0063467,7.6847722
70148741,Schlachtanlage Habkern,,3804.0,Habkern BE,SH,,"B, C, O, P",46.72639,7.86304
41532080,Schlachtanlage Heidbühl Metzg AG,Heidbühl ,3537.0,Eggiwil BE,SH,"SH(II), SH(III), GHE(IV)","B, C, O, P, S",46.87575,7.79567
41365123,Schlachtanlage Hofer Hofer Beat,Oberdorfstrasse 12,3322.0,Urtenen-Schönbühl BE,SH,SH(II),"B, O, P",47.0286019,7.5001212
41318888,Schlachtanlage Holzer,Dorfstrasse 9,3324.0,Hindelbank BE,SH,,"B, C, O, P",47.0433129,7.5402319
65292299,Schlachtanlage Hort Metzgerei Hort,Muhlernstrasse 238,3098.0,Schliern b. Köniz BE,SH,,"B, C, O, P",46.92436,7.41457
41273991,Schlachtanlage Jöhr AG Metzgerei Jöhr AG,Neumattweg 21,3067.0,Boll BE,SH,,"B, C, O",46.9527944,7.5390801
62687880,Schlachtanlage Keller,,3532.0,Zäziwil BE,SH,"SH(II), GHE(IV)","B, C, O, P",46.90196,7.66185
41438284,Schlachtanlage Küng,,3125.0,Toffen BE,SH,SH(III),"B, C, O, P",46.86031,7.49216
70660703,Schlachtanlage Landi Leuzigen,Hintere Gasse 13 A,3297.0,Leuzigen BE,SH,"SH(II), SH(III), GHE(IV)","B, C, O, P",47.1743699,7.4538384
71469252,Schlachtanlage Liechti,,3538.0,Röthenbach im Emmental BE,SH,"SH(II), SH(III), GHE(IV)","B, C, O, P, S",46.85425,7.74251
70656927,Schlachtanlage Luginbühl,,3665.0,Wattenwil BE,SH,,"B, C, O, P",46.76973,7.50835
70148757,Schlachtanlage Lütschental,,3816.0,Lütschental BE,SH,,"B, C, O",46.63727,7.9499
46866764,Schlachtanlage Marti Marti Metzgerei AG,Unterstrasse 28,3360.0,Herzogenbuchsee BE,SH,,"B, O, P",47.1902128,7.7034681
41478093,Schlachtanlage Meister,Dorf 108c,4954.0,Wyssachen BE,SH,"SH(II), SH(III), GHE(IV)","B, C, O, P, S",47.07851,7.82922
41469759,Schlachtanlage Metzgerei AG Beat Bieri,Neubau ,6197.0,Schangnau BE,SH,"SH(II), SH(III)","B, C, O, P, S",46.82784,7.85987
61645313,Schlachtanlage Metzgerei Meyer GmbH,Mühlegasse 19,3283.0,Kallnach BE,SH,"SH(II), SH(III), GHE(IV)","B, C, O, P",47.0225138,7.2355165
70148542,Schlachtanlage Mümliswil,Förstlenweg 24,4717.0,Mümliswil SO,SH,"SH(II), SH(III)","B, C, O, P",47.3414464,7.7006259
41379194,Schlachtanlage Niesen-Metzg,Gurzelestrasse 12,3752.0,Wimmis BE,SH,,"B, C, O, P",46.6756721,7.6388955
41168423,Schlachtanlage Niklaus,,4917.0,Melchnau BE,SH,,"B, C, O, P",47.18213,7.85128
41402309,Schlachtanlage Nussbaum,,3114.0,Wichtrach BE,SH,"SH(II), SH(III), GHE(IV)","B, C, O, P, S",46.8501,7.57748
42144811,Schlachtanlage Nussbaum,Sägegasse 27,3110.0,Münsingen BE,SH,SH(II),"B, C, O, P",46.8735889,7.5547362
41374856,Schlachtanlage Nussbaum,Stockentalstrasse 70,3647.0,Reutigen BE,SH,"SH(II), SH(III)","B, C, O, P",46.6959777,7.6185674
42870330,Schlachtanlage Oberli,,6197.0,Schangnau BE,SH,"SH(II), SH(III)","B, C, O, P",46.82784,7.85987
70148495,Schlachtanlage Oensingen,Hauptstrasse 84,4702.0,Oensingen SO,SH,"SH(II), SH(III)","B, C, O, P",47.289916,7.7260478
70148872,Schlachtanlage Raft Metzg-Hüsi,Dorf ,3655.0,Sigriswil BE,SH,"SH(II), SH(III), GHE(IV)","B, C, O, P",46.71656,7.71335
41468509,Schlachtanlage Reber,,3555.0,Trubschachen BE,SH,,"B, C, O, P",46.92228,7.8452
70148940,Schlachtanlage Rest. Linde,,3664.0,Burgistein BE,SH,"SH(III), GHE(IV)","B, C, O, P, S",46.78464,7.49988
70148825,Schlachtanlage Rohrbach,Walke 10,4938.0,Rohrbach BE,SH,"SH(II), SH(III)","B, C, O, P",47.1376231,7.80054
50679991,Schlachtanlage Rufener,,3638.0,Blumenstein BE,SH,"SH(II), SH(III)","B, C, O, P",46.7421,7.52136
80527620,Schlachtanlage Rychener,Eggiwilstrasse 13,3535.0,Schüpbach BE,SH,SH(III),"B, C, O, P",46.9241442,7.7412137
41262277,Schlachtanlage Schaufelberger Bernhard GmbH,Bernstrasse 60,3267.0,Seedorf BE BE,SH,SH(III),"B, C, O, P",47.0355586,7.3120877
66108846,Schlachtanlage Schenk,,3036.0,Detligen BE,SH,"SH(II), SH(III), GHE(IV)","B, C, O, P",47.00308,7.27357
70218372,Schlachtanlage Schwellenkorpo.- Aareboden,Mattenweg 8,3855.0,Brienz BE BE,SH,,"B, C, O, P",46.7477689,8.0631743
43045641,Schlachtanlage Segessenmann,Dorfstrasse 5,3305.0,Scheunen BE,SH,"SH(II), GHE(IV)","B, C, O, P",47.0695921,7.4589116
41525078,Schlachtanlage Soltermann,,3367.0,Thörigen BE,SH,"SH(III), GHE(IV)","B, C, O, P, S",47.17306,7.72888
41502112,Schlachtanlage Sommer,Trachselwaldstrasse 3,3455.0,Grünen BE,SH,,"B, C, O, P, S",47.0244477,7.7414386
43067446,Schlachtanlage Steffisburg Siegenthaler Hans,Unterer Riederenweg 64,3612.0,Steffisburg BE,SH,SH(II),"B, C, O, P",46.7945667,7.6133549
70218325,Schlachtanlage Stengeli,,3150.0,Schwarzenburg BE,SH,"SH(II), SH(III)","B, C, O, P, S",46.81811,7.34208
70657648,Schlachtanlage Stettler Schüpfen GmbH,Bergackerweg 1,3054.0,Schüpfen BE,SH,,"B, C, O, P",47.0360723,7.3766105
41273813,Schlachtanlage Stucki,Worbstrasse 1,3067.0,Boll BE,SH,,"B, C, O, P",46.9540004,7.5489304
42886571,Schlachtanlage Stähli Stähli Peter &amp; Silvia,Niederboden ,3622.0,Homberg b. Thun BE,SH,,"B, C, O, P",46.77642,7.68322
80556967,Schlachtanlage Tanner,Hausmattweid 2,3152.0,Mamishaus BE,SH,SH(III),"B, C, O, P, S",46.811139,7.3613809
41275014,Schlachtanlage Tschanz,Hauptstrasse 12,4936.0,Kleindietwil BE,SH,"SH(II), GHE(IV)","B, C, O, P",47.1446429,7.7906711
42926936,Schlachtanlage Von Allmen Ulrich Von Allmen,Eschen ,3826.0,Gimmelwald BE,SH,,"B, C, O",46.546,7.89149
70148736,Schlachtanlage VVK Lenk i.S.,Lenkstrasse ,3775.0,Lenk im Simmental BE,SH,"SH(II), SH(III), GHE(IV)","B, C, O, P, S",46.45826,7.44298
70149567,Schlachtanlage VVK Oberwil i.S.,Hüpbach ,3765.0,Oberwil im Simmental BE,SH,,"B, C, O, P",46.65688,7.43513
70148720-2,Schlachtanlage VVK Reutigen,,3647.0,Reutigen BE,SH,,"B, C, O, P",46.69363,7.62102
70148673,Schlachtanlage VVK Rüeggisberg,,3088.0,Rüeggisberg BE,SH,,"B, C, O, P, S",46.82216,7.4389
80521189,Schlachtanlage VVK Uetendorf,,3661.0,Uetendorf BE,SH,SH(II),"B, C, O, P",46.77392,7.57251
70148778,Schlachtanlage VVK Viehversicherungskasse,Urbachseystrasse 31a,3860.0,Meiringen BE,SH,"SH(II), SH(III), GHE(IV)","B, C, O, P, S",46.7314943,8.170322
45070373,Schlachtanlage Walterswil,Ruessenstrasse 5b,6340.0,Baar ZG,"SH, CP","SH(II), CP(II), SH(III), CP(III), PP(VI)","B, C, O, P, S",47.19544,8.53701
70148516,Schlachtanlage Welschenrohr,Dünnernstrasse 314,4716.0,Welschenrohr SO,SH,"SH(II), SH(III)","B, C, O, P",47.2800072,7.5313911
41537361,"Schlachtbetrieb Gunzwil, Estermann Heinrich",Sagen ,6222.0,Gunzwil LU,SH,,"B, C, O, P",47.21072,8.17932
61184033,Schlachtbetrieb Gyrenbad,Höhenstr. 106,8340.0,Hinwil ZH,SH,"SH(II), SH(III)","B, C, O, P, S",47.3091774,8.8723096
52840881,Schlachtbetrieb Häberli Peter,Käppelistr. 1,6287.0,Aesch LU LU,SH,,"B, C, O, P",47.2553189,8.237795
107,Schlachtbetrieb St.Gallen SBAG,Schlachthofstr. 24,9015.0,St. Gallen SG,SH,,B,47.4070575,9.2907866
78556103,Schlachtbetrieb Visperterminen,,3932.0,Visperterminen VS,SH,,"B, C, O",46.25899,7.90192
61138063,Schlachtgen. Burgdorf &amp; Umgeb.,,3400.0,Burgdorf BE,SH,,"B, C, O, P, S",47.05901,7.62786
65350977,Schlachthaus Bödemli AG,Turbachstrasse 59,3780.0,Gstaad BE,SH,"SH(II), SH(III), GHE(IV)","B, C, O, P, S",46.4709771,7.2984801
70218152,Schlachthaus Engelberg,Engelbergerstrasse 125,6390.0,Engelberg OW,SH,SH(III),"B, C, O",46.8240514,8.3837429
70678957,Schlachthaus Gamsen,,3900.0,Brig VS,SH,,"B, C, O, P, S",46.31667,7.98333
41567717,Schlachthaus Rüti-Büron AG,Rütistrasse ,6233.0,Büron LU,"SH, CP",PP(VI),"B, C, O, P, S",47.21206,8.09421
70148233,Schlachthaus Wilchingen,Schlachthaus Wilchingen an der Bettengasse Vers. Nr. 72,8217.0,Wilchingen SH,SH,"SH(II), SH(III)","B, C, O, P, S",47.66745,8.46774
70218262,Schlachthausgem.Dägerlen-Hettlingen,Dorfstr. 10A,8471.0,Rutschwil (Dägerlen) ZH,SH,"SH(II), SH(III)","B, C, O, P, S",47.5583421,8.7284482
61772356,Schlachthausgenossenschaft,,4900.0,Langenthal BE,SH,,"B, C, O, P, S",47.21584,7.79453
70147863,Schlachthauskorporation Tuttwil,,9546.0,Tuttwil TG,SH,SH(II),"B, C, O, P",47.48351,8.94218
70600421,Schlachthausverein Arn,Hüttenstr. 17,8810.0,Horgen ZH,SH,"SH(II), SH(III)","B, C, O, P, S",47.2377494,8.6157829
70149090,Schlachthausverein Oerlingen,Weiherstr. 2,8461.0,Oerlingen ZH,SH,"SH(II), SH(III)","B, C, O, P, S",47.6238208,8.6760769
71511286,Schlachthof,,3907.0,Simplon Dorf VS,SH,,"B, C, O, P",46.19451,8.05753
71689667,Schlachthof Baumgartner,Unterdorfstr. 10,9451.0,Kriessern SG,SH,,"B, C, O, P, S",47.3664114,9.6080799
41140868,Schlachthof Büttner AG,Industriestrasse Althau 15,5303.0,Würenlingen AG,SH,"SH(II), SH(III), GHE(IV)","B, C, O, P, S",47.5303719,8.2415312
61601494,"Schlachthof Gruben Huus-Metzg, Notschlachtlokal Niederuzwil",Grueben ,9244.0,Niederuzwil SG,SH,"SH(II), SH(III)","B, C, O, P, S",47.44655,9.14165
80373292,Schlachthof Metzgerei G. Zuber Ag,Metzgerei ,3922.0,Stalden VS VS,SH,,"B, C, O, P, S",46.23341,7.87273
63392618,Schlachthof Metzgerei Mark AG,Lundnerstrasse 69,7222.0,Lunden GR,SH,"SH(III), GHE(IV)","B, C, O, P, S",46.95134,9.71429
65395213,Schlachthof Mittelbünden AG,Unterrealta ,7408.0,Cazis GR,"SH, CP",SH(II),"B, C, O, P, S",46.72308,9.42881
69519825,Schlachthof Zermatt,,3920.0,Zermatt VS,SH,,"B, C, O, P, S",46.02126,7.74912
79910235,Schlachthüsi Freimettigen,Katzengässli 1,3510.0,Konolfingen BE,SH,"SH(II), SH(III)","B, C, O, P, S",46.8716487,7.6275033
ZB-69834275,Schlachthüsli Fey GmbH,Dielsdorferstr. 2,8173.0,Neerach ZH,SH,,B,47.510702,8.4776473
69834275,Schlachthüsli Fey GmbH,Dielsdorferstr. 2,8173.0,Neerach ZH,SH,"SH(II), SH(III)","B, C, O, P, S",47.510702,8.4776473
70148254,Schlachtlokal Arisdorf,Hauptstrasse 72,4422.0,Arisdorf BL,SH,"SH(III), GHE(IV)","B, C, O, P",47.510207,7.7651008
70148275,Schlachtlokal Bennwil,Spittelerweg 1,4431.0,Bennwil BL,SH,,"B, C, O, P",47.4034863,7.780186
74342247,Schlachtlokal Carnatira Janki SA,Via Staziun 8,7156.0,Rueun GR,SH,"SH(III), GHE(IV)","B, C, O, P, S",46.7749614,9.1468181
55143351,Schlachtlokal Curschellas SA,Via Alpsu 73,7188.0,Sedrun GR,SH,"SH(II), SH(III), GHE(IV)","B, C, O, P, S",46.679635,8.7735124
70687422,Schlachtlokal Diegten,Zälghagweg 55,4457.0,Diegten BL,SH,,"B, C, O",47.4123463,7.8130524
65199213,Schlachtlokal Fleischgenossenschaft Sernftal,Sernftalstrasse 38,8765.0,Engi GL,SH,"SH(II), SH(III), GHE(IV)","B, C, O, P, S",46.9827638,9.1461965
70148144,Schlachtlokal Fleischzentrum Klosters Davos AG,Gulfiastrasse 38,7252.0,Klosters Dorf GR,SH,"SH(II), SH(III), GHE(IV)","B, C, O, P, S",46.8823961,9.8690069
70148191,Schlachtlokal Furna,Geissbodenweg 3,7232.0,Furna GR,SH,"SH(III), GHE(IV)","B, C, O, P, S",46.9350868,9.6784953
45865628,Schlachtlokal Gelterkinden,Fabrikweg 11,4460.0,Gelterkinden BL,SH,,"B, C, O, P",47.4660985,7.8585637
68085888,Schlachtlokal Genossenschafts-Metzgerei,Gewerbestrasse 6,7107.0,Safien Platz GR,SH,"SH(II), SH(III), GHE(IV)","B, C, O, P, S",46.6794739,9.3147272
64842232,Schlachtlokal Grava,,7452.0,Cunter GR,SH,"SH(II), SH(III), GHE(IV)","B, C, O, P, S",46.60959,9.58978
42550678,Schlachtlokal Hartmann,Oberdorfstrasse 11,7202.0,Says GR,SH,,"B, C, O, P",46.90737,9.58238
51958523,Schlachtlokal Hatecke,Center Augustin ,7550.0,Scuol GR,SH,"SH(III), GHE(IV)",B,46.79676,10.30595
70627177,Schlachtlokal Hofmetzgerei Sonnenrüti,Medergerstrasse 4,7057.0,Langwies GR,SH,GHE(IV),"B, C, O",46.81925,9.70938
42516614,Schlachtlokal Hösli Metzg AG,Oswald-Heer-Strasse 13,8750.0,Glarus GL,SH,"SH(II), SH(III), GHE(IV)","B, C, O, P, S",47.037795,9.0699194
70603202,Schlachtlokal Jenins,Sägenstrasse 14,7307.0,Jenins GR,SH,"SH(II), SH(III), GHE(IV)","B, C, O, P",47.0027055,9.5600479
70148322,Schlachtlokal Känerkinden,Hauptstrasse 30,4447.0,Känerkinden BL,SH,"SH(II), SH(III), GHE(IV)","B, C, O, P",47.4119972,7.8360897
80616867,Schlachtlokal Limpachtal z.Hd. Herrn Martin Reber,Hauptstrasse 31,4588.0,Oberramsern SO,SH,"SH(II), SH(III)","B, C, O, P",47.1144675,7.4626211
40818715,Schlachtlokal Lozza,Metzgerei ,7180.0,Disentis/Mustér GR,SH,,"B, C, O, P",46.70341,8.8509
40239837,Schlachtlokal Metzgerei Berwert AG,Adlerstrasse 19,8868.0,Oberurnen GL,SH,"SH(II), SH(III), GHE(IV)","B, C, O, P, S",47.1137597,9.0582475
73200196,Schlachtlokal Metzgerei Hefti Zizers,Oberauweg 4,7205.0,Zizers GR,SH,"SH(III), GHE(IV)","B, C, O, P, S",46.9340176,9.5586377
51973888,Schlachtlokal Metzgerei Spiess GmbH,Voa Principala 34 /Postfach 937,7078.0,Lenzerheide/Lai GR,SH,SH(II),"B, C, O, P",46.7253593,9.5580277
66501258,Schlachtlokal Meztga Viamala,Pitgogna 19,7440.0,Andeer GR,SH,"SH(II), SH(III), GHE(IV)","B, C, O, P, S",46.6036061,9.425733
70602628,Schlachtlokal Münstertal,Döss da Somvih 105,7537.0,Müstair GR,SH,"SH(III), GHE(IV)","B, C, O, P, S",46.62683,10.44624
70603223,Schlachtlokal Nay Ivo,Via d'Industria 17,7166.0,Trun GR,SH,"SH(III), GHE(IV)","B, C, O, P, S",46.7422915,8.9925329
63284295,Schlachtlokal Pally,Metzgerei ,7184.0,Curaglia GR,SH,"SH(III), GHE(IV)","B, C, O",46.67341,8.8579
70148186,Schlachtlokal Trimmis,Karlihof 2,7203.0,Trimmis GR,SH,"SH(II), SH(III), GHE(IV)","B, C, O, P, S",46.9000187,9.5637066
70602607,Schlachtlokal Tschuppina,Via Cuort 16,7165.0,Breil/Brigels GR,SH,,"B, C, O, P, S",46.76986,9.06036
40818694,Schlachtlokal Venzin,Via Sursilvana 23,7180.0,Disentis/Mustér GR,SH,"SH(III), GHE(IV)","B, C, O, P",46.7061097,8.856592
65754310,Schlachtlokal Vrin,Sut Vitg 51C,7149.0,Vrin GR,SH,"SH(III), GHE(IV)","B, C, O, P, S",46.6551751,9.1002124
70148390,Schlachtlokal Wenslingen,Hauptstrasse 11,4493.0,Wenslingen BL,SH,"SH(II), SH(III), GHE(IV)","B, C, O, P",47.4379394,7.9112146
60250302,Schlachtlokal Wiederkehr,Refontana ,6544.0,Braggio GR,SH,,"B, C",46.30277,9.1238
46121029,Schlachtlokal Zanetti,Quadra Secha 37B,7556.0,Ramosch GR,SH,"SH(III), GHE(IV)","B, C, O, P, S",46.83333,10.38333
70148406,Schlachtlokal Ziefen,Hauptstrasse 103,4417.0,Ziefen BL,SH,"SH(II), SH(III), GHE(IV)","B, C, O, P, S",47.4235928,7.697005
41402754,Schmid Metzgerei Biberen AG,Bernstrasse 92,3206.0,Biberen BE,SH,SH(III),"B, C, O, P",46.940267,7.215315
61240850,Schmied Bruno,Dorfstrasse 18,3633.0,Amsoldingen BE,SH,,"B, C, O, P",46.7278374,7.5819779
42425737,Schneider Hans,Brandhof ,4312.0,Magden AG,SH,"SH(II), GHE(IV)","B, C, O, P, S",47.52868,7.81128
70654207,Schneider Heinz,Kappelenstrasse 28,3472.0,Wynigen BE,SH,SH(III),"B, C, O, P",47.1050781,7.6733896
46906385,Scholl Fleisch- &amp; Feinkost AG André Scholl,Kronengasse 3,2545.0,Selzach SO,SH,"SH(II), SH(III)","B, C, O, P",47.2070447,7.4527759
43212174,Schuler Meinrad,Waagtalstrasse 82,8842.0,Unteriberg SZ,SH,,"B, C, O, P",47.0366961,8.8044539
80615769,Schwander Urs,Walterswilerstrasse 10,5746.0,Walterswil SO SO,SH,"SH(II), SH(III)","B, C, O, P",47.3236553,7.9598987
63304229,Schwarzer Raphael,Trüttlikon 12,8524.0,Uesslingen TG,SH,"SH(II), SH(III), GHE(IV)","B, C, O, P",47.5955237,8.8189147
70148888,Schwendi-Metzg GmbH,Schwendi 308,3625.0,Heiligenschwendi BE,SH,SH(II),"B, C, O, P",46.7495458,7.6903963
70736226,Schärer Fleischverarbeitungen GmbH,Sensebrücke 17,3176.0,Neuenegg FR,"SH, CP","SH(III), CP(III)","B, C, O, P, S",46.8926112,7.3013475
52227997,Service intercommunal de gestion SIGE,Quai Maria-Belgia 18,1800.0,Vevey VD,"SH, CP",,"B, C, O, P, S",46.4608274,6.8362839
70425416,Signer-Frick Peter,"Ochsen, Unterdorf 20",9105.0,Schönengrund AR,SH,"SH(II), SH(III), GHE(IV), PP(VI)","B, C, O, P, S",47.00016,8.01427
64428066,SILA AG,Gewerbestr. 4,4446.0,Buckten BL,"SH, CP",,"B, C, O",47.4099,7.84481
74903220,Sonnay Eric,La Dausaz 1,1607.0,Les Tavernes VD,"SH, CP",SH(II),"B, C, O, P, S",46.5521018,6.7992614
44245815,Spuhler Daniel,Unterer Berghof 90,5465.0,Mellikon AG,SH,"SH(II), SH(III), GHE(IV)","B, C, O, P, S",47.5614345,8.3535101
70148605,Stachel-Holdener Josef,Firststrasse 7,8835.0,Feusisberg SZ,SH,,"B, C, O, P",47.1893676,8.7382645
CH64016213,Stadelmann Joseph,Route des Fontaines 22,2952.0,Cornol JU,SH,,"B, C, O, P",47.406948,7.1618177
52126472,Sté coopérative de l'abattoir régional d'Orbe,Ch. de l'Etraz 19,1350.0,Orbe VD,"SH, CP","SH(III), CP(III), GHE(IV)","B, C, O, P, S",46.7201198,6.5392719
70147842,Sté coopérative de l'abattoir régional GPEO,Rte des Ouges 18,1660.0,Les Moulins VD,"SH, CP",,"B, C, O, P, S",46.4632396,7.1047762
64960113,Sté coopérative des Abattoirs,Ch. de Trérayer 2,1880.0,Les Posses-sur-Bex VD,SH,,"B, C, O, P, S",46.271622,7.0413487
A10859694,Stocker Simon,Sennhus 4,8820.0,Wädenswil ZH,SH,SH(III),"B, O",47.219907,8.6284029
ZB-10859694,Stocker Simon,Sennhus 4,8820.0,Wädenswil ZH,SH,,B,47.219907,8.6284029
40973797,Sturzenegger Kurt,Sonnhaldenstrasse 1,8370.0,Sirnach TG,SH,"SH(II), SH(III), GHE(IV)","B, C, O, P",47.4634693,8.9878911
43363946,Styger Bruno,Gisenrütistr. 80,8820.0,Wädenswil ZH,SH,"SH(II), SH(III)","B, C, O, P, S",47.2041478,8.6554952
62474159,Störmetzgerei Pfäfers,Ausserdorfstrasse 1,7312.0,Pfäfers SG,SH,SH(III),"B, C, O, P, S",46.9890464,9.4991345
93502924,Säntis Metzgerei AG,Dorf 813,9064.0,Hundwil AR,SH,"SH(II), GHE(IV), PP(VI)","B, C, O, P",47.00016,8.01427
41305370,Thoma &amp; Liechti Fleisch AG,,3308.0,Grafenried BE,SH,SH(II),"B, C, O, P",47.07654,7.51471
91604182,Tierpark Lange Erlen,Erlenparkweg 110,4058.0,Basel BS,"SH, CP","SH(II), CP(II), SH(III), CP(III), CP(IV), GHE(IV)","B, C, O, P",47.5742216,7.6084815
TI70678585,Tognetti Tessa,Via al Ticino 6,6592.0,S. Antonino TI,SH,,"B, C, O, P, S",46.1622625,8.9714339
53577205,Tschumi Christian GmbH,Unterdorfstrasse 52,4244.0,Röschenz BL,SH,"SH(II), SH(III), GHE(IV)","B, C, O, P, S",47.4238855,7.4778579
81047276,Ueli Hof AG,Ueli Hof AG Schlachtbetrieb ,6030.0,Ebikon LU,SH,,"B, C, O, P",47.07937,8.34041
52616580,Universität ZH Vetsuisse Fakultät,Winterthurerstr. 204,8057.0,Zürich ZH,SH,"SH(II), SH(III)","B, C, O, P, S",47.3998553,8.5497054
70147989,Urich Fleisch und Feines GmbH,Mitteldorf 3,4314.0,Zeiningen AG,SH,"SH(II), SH(III), GHE(IV)","B, C, O, P, S",47.5414077,7.8700891
CH41457439,Vallat Yannick,Rue de la Terrière ,2915.0,Bure JU,SH,SH(II),"B, C, O, P",47.44165,7.00748
CH61800956,Vanhouteghem Michel,Faubourg de France 19,2900.0,Porrentruy JU,SH,,"B, C, O, P, S",,
70149258,Verein Regionalschlachthaus Agasul,Vogtacherstr. 1,8308.0,Agasul ZH,SH,"SH(II), SH(III)","B, C, O, P, S",47.4249394,8.7437136
70600311,Viehverwertung Fischenthal,Tösstalstr. 428,8497.0,Fischenthal ZH,SH,"SH(II), SH(III)","B, C, O, P, S",47.3348337,8.9229524
41685362,Vonwyl Fleisch GmbH,Alberswilerstr. 7,6218.0,Ettiswil LU,"SH, CP",PP(VI),"B, C, O, P",47.1495355,8.0160563
81800763,VVK Viehversicherungskassen,Bahnhofstrasse 4,3465.0,Dürrenroth BE,SH,,"B, C, O, P",47.0912218,7.7936692
70593633,Vögele Rolf,Gibriststrasse 10,5317.0,Hettenschwil AG,SH,"SH(II), SH(III), GHE(IV)","B, C, O, P, S",47.5740649,8.2029075
ZB-70149237,Wanger's Landmetzg AG,Wangen 17,8127.0,Forch ZH,SH,,B,47.321149,8.6396045
70149237,Wanger's Landmetzg AG,Wangen 17,8127.0,Forch ZH,SH,"SH(II), SH(III)","B, C, O, P, S",47.321149,8.6396045
80603407,Weber Jakob,Aewilerstrasse 1,9608.0,Ganterschwil SG,SH,,"B, C, O, P",47.3805943,9.0902903
45848690,Weber Jakob,Gotthardstrasse 3,6415.0,Arth SZ,SH,,"B, C, O, P",47.0525135,8.541752
45101487,Wechsler Metzg AG,Dorf ,6244.0,Nebikon LU,SH,,"B, C, O, P, S",47.19257,7.97806
42135031,Wernli Roger,Gansingerstrasse 20,5236.0,Remigen AG,SH,"SH(II), SH(III), GHE(IV)","B, C, O, P, S",47.5159651,8.1895692
42674660,Wicki - Stalder Walter,Dürrenbachtempel ,6192.0,Wiggen LU,SH,,"B, C, O, P",46.89628,7.90876
41015272,Widmer Urs,Hintergasse 3,9620.0,Lichtensteig SG,SH,SH(II),"B, C, O, P",47.3232388,9.086804
46733798,Wildmanufaktur und Pferdemetzgerei Arn GmbH,Teufenthalerstrasse 27,5724.0,Dürrenäsch AG,SH,"SH(III), GHE(IV)","B, C, O, P, S",47.3218721,8.1512655
70218351,Winkler Fleisch und Vieh AG,Bielstrasse 49a,3250.0,Lyss BE,SH,,"B, C, O, P, S",47.077726,7.30209
50358303,Wiprächtiger AG,Dorfstrasse 40,6133.0,Hergiswil b. Willisau LU,"SH, CP",,"B, C, O, P, S",47.0834965,7.9559321
79618227,Ürmetzg AG,Giessenstrasse 44,6460.0,Altdorf UR UR,SH,,"B, C, O, P",46.8860106,8.6265262
53159495,Zeller Michael,Juggen ,9204.0,Andwil SG SG,SH,,"B, C, O, P",47.43855,9.27637
68684060,Zett Michael &amp; Pirmin,Hirschlenstrasse 5,8864.0,Reichenburg SZ,SH,,"B, C, O, P",47.1735105,8.98037
79870279a,Zusatzbewilligung Hoftötung,,8242.0,Bibern SH SH,SH,,,47.77291,8.6762